IRIDIUM 112             
1 41925U 17003J   26017.43354282  .00000251  00000+0  82607-4 0  9993
2 41925  86.4011 151.3119 0001927 100.8156 259.3257 14.34217497471663
IRIDIUM 111             
1 41926U 17003K   26017.42085992 -.00000043  00000+0 -22519-4 0  9999
2 41926  86.4016 151.3844 0001986  96.1023 264.0399 14.34217094471640
IRIDIUM 113             
1 42803U 17039A   26017.54035967  .00000094  00000+0  26641-4 0  9997
2 42803  86.3957  25.1231 0002187  94.7506 265.3940 14.34217713449593
IRIDIUM 123             
1 42804U 17039B   26017.51207220  .00000054  00000+0  12066-4 0  9990
2 42804  86.3933  56.6178 0002474  92.8638 267.2841 14.34217786448355
IRIDIUM 120             
1 42805U 17039C   26017.53401683  .00000140  00000+0  42911-4 0  9990
2 42805  86.3945  24.9277 0002157  82.2988 277.8453 14.34217763449583
IRIDIUM 115             
1 42806U 17039D   26017.53198689  .00000166  00000+0  43479-4 0  9998
2 42806  86.4481  25.0366 0002699  84.2121 275.9388 14.43278222452535
IRIDIUM 118             
1 42807U 17039E   26017.61355287 -.00000086  00000+0 -37740-4 0  9994
2 42807  86.3930  56.5737 0002088  97.6235 262.5198 14.34216881448361
IRIDIUM 117             
1 42808U 17039F   26017.63258130  .00000110  00000+0  32362-4 0  9997
2 42808  86.3930  56.5251 0002414  94.5774 265.5697 14.34217987448398
